IRIDIUM 116             
1 43072U 17083C   25337.72360358  .00000426  00000+0  14508-3 0  9991
2 43072  86.3975  43.7016 0002413 102.8977 257.2488 14.34221001416152
IRIDIUM 130             
1 43073U 17083D   25337.69188733  .00000452  00000+0  15424-3 0  9990
2 43073  86.3984  43.9713 0002145 105.2785 254.8648 14.34222500416094
IRIDIUM 151             
1 43074U 17083E   25337.73628609  .00000258  00000+0  84999-4 0  9995
2 43074  86.3982  43.7500 0002199  96.6379 263.5067 14.34217812416122
IRIDIUM 134             
1 43075U 17083F   25337.63480347  .00000541  00000+0  18601-3 0  9991
2 43075  86.3979  43.7976 0002103 102.7112 257.4318 14.34220435416075
IRIDIUM 137             
1 43076U 17083G   25337.71726029 -.00000040  00000+0 -21276-4 0  9990
2 43076  86.3977  43.8518 0002557  97.5352 262.6134 14.34217721416154
IRIDIUM 141             
1 43077U 17083H   25337.64114782  .00000429  00000+0  14596-3 0  9995
2 43077  86.3977  43.7253 0002009  94.6985 265.4440 14.34219346416147
IRIDIUM 153             
1 43078U 17083J   25337.80264458  .00000492  00000+0  16860-3 0  9996
2 43078  86.3979  12.1490 0001816  90.4884 269.6519 14.34218138417276
IRIDIUM 131             
1 43079U 17083K   25337.69823147  .00000063  00000+0  15501-4 0  9996
2 43079  86.3983  43.8748 0002073  94.1868 265.9565 14.34217765416081
